{"type":"FeatureCollection","features":[{"type":"Feature","geometry":{"type":"Polygon","coordinates":[[[-73.933808000290554,40.882213999737949],[-73.933788000199073,40.882207000136638],[-73.924974000125871,40.879143999731603],[-73.924650000260769,40.879038000287863],[-73.924502999947677,40.878973999670052],[-73.92260200041477,40.878779000080669],[-73.92162999992118,40.878321000060801],[-73.919808000030983,40.876576999938344],[-73.91912199976764,40.876428999875564],[-73.91893199979684,40.876387999781272],[-73.9173090000983,40.876036999707587],[-73.915200000152936,40.87558100011254],[-73.915168000365895,40.875694999796309],[-73.915124999809876,40.875844999831926],[-73.914904999701847,40.876577999772401],[-73.912204999927695,40.878178000229937],[-73.911404999861531,40.879278000015773],[-73.910310000242589,40.879046999817895],[-73.910183999845898,40.879020999662856],[-73.910044000103809,40.878991000307181],[-73.909505000153558,40.878877999985804],[-73.909188999786039,40.878168000092465],[-73.908681999622843,40.877762999707961],[-73.908553999576327,40.877712000233572],[-73.908501999697791,40.877690999999054],[-73.908004999580342,40.877477999863949],[-73.907819999632409,40.877201000107519],[-73.90765200030124,40.876934000196691],[-73.907305999796506,40.876519000026576],[-73.907244999697141,40.876445999807764],[-73.907229999628512,40.876427000202888],[-73.907197999841458,40.876389000297422],[-73.907104999955067,40.876277000127551],[-73.907078000190893,40.875560999730695],[-73.907047000228729,40.874724000238466],[-73.907000000373074,40.873455000084419],[-73.907007000045752,40.873373000262312],[-73.907104000130147,40.872977999994596],[-73.907905000021216,40.872678000177054],[-73.907980000364304,40.872571999889331],[-73.908248999977801,40.872186999960867],[-73.908525999987233,40.871792000089442],[-73.908604999629958,40.871677999798422],[-73.909105000120462,40.871675999982251],[-73.909203000029763,40.86977599991561],[-73.909803999904284,40.868282000042953],[-73.910055999799368,40.867848999920568],[-73.910208999960233,40.867591000064145],[-73.910850999842665,40.866527999863798],[-73.914339999812313,40.862520999891693],[-73.914901000402196,40.861982999944388],[-73.916499999811293,40.860384000200483],[-73.916975000187449,40.859908999879401],[-73.918206000248844,40.858678999795217],[-73.918499999976717,40.858352000191807],[-73.919289999997133,40.857474999765785],[-73.920004999674475,40.856679000036394],[-73.920273000361405,40.856233999813597],[-73.920957999901518,40.855112000303713],[-73.921214999819455,40.854692999953159],[-73.921404999790269,40.85435799970108],[-73.921536000209855,40.854127000209772],[-73.921581000415685,40.854045999729728],[-73.921625999723219,40.85396600000562],[-73.922199000008661,40.85311200020972],[-73.922706000171857,40.85247900022965],[-73.922978000158423,40.852021999914442],[-73.923646999805001,40.850902000182039],[-73.923903999722967,40.850488000167303],[-73.925036000050142,40.849180000220379],[-73.927295999608248,40.846556999682896],[-73.927396999890576,40.846436000138389],[-73.928032000100302,40.84566999980516],[-73.928105999720145,40.845579000236384],[-73.928150000101084,40.845507000190338],[-73.928159000321912,40.845491999717908],[-73.928244999637329,40.845348999664161],[-73.928253000033251,40.845335000141262],[-73.929006000243746,40.844079000332194],[-73.929503000361194,40.842381000013717],[-73.929597000072533,40.842292000030305],[-73.929608999768107,40.84227999988596],[-73.929634999707361,40.842256000270297],[-73.929694999981834,40.84219499982062],[-73.929578999630877,40.842046999710547],[-73.929726999768874,40.841848999716959],[-73.930038999938418,40.841249999786783],[-73.930367999826373,40.840650000183167],[-73.93040600035954,40.840279000135816],[-73.930606000376073,40.839678999897927],[-73.930654000056649,40.839598999818335],[-73.933005999676254,40.835678999978491],[-73.933143999768518,40.834814999780086],[-73.933459000311103,40.833184000211133],[-73.93341699957999,40.831376999677971],[-73.933262999594191,40.829504000302713],[-73.933193000172324,40.829161000179553],[-73.933182000301656,40.828984999685204],[-73.933159999662024,40.828885999966538],[-73.933139999570557,40.828628999821539],[-73.933074000346622,40.828274999852958],[-73.933061999752738,40.8282020001582],[-73.933059000278007,40.828156000011319],[-73.933046999684123,40.827994999925629],[-73.933033000338739,40.827913000242589],[-73.933020999744855,40.827834000128789],[-73.933003000201523,40.827676000298538],[-73.93289799972122,40.826558000191064],[-73.932824999926282,40.826077999787458],[-73.932813000230723,40.825941000187655],[-73.932793000139228,40.825830000279602],[-73.932781000443669,40.825714999817542],[-73.932748999758303,40.825491999813316],[-73.932748999758303,40.825438999662424],[-73.932748999758303,40.825386000148889],[-73.93273600023781,40.825290000280916],[-73.932727999841902,40.82518299968374],[-73.932718999621059,40.825116000251043],[-73.93266099989475,40.824538000132982],[-73.932643000351405,40.824355999949148],[-73.932631999582441,40.824134000079596],[-73.932590999574558,40.823665999922675],[-73.932568000008331,40.823487999887924],[-73.932567000183425,40.823249999805419],[-73.932537999871116,40.823051000129027],[-73.932520000327756,40.822800000280132],[-73.932491000015446,40.822554000010278],[-73.932467999550909,40.822203000167782],[-73.932424999893215,40.821561000141322],[-73.932407000349855,40.821283999704995],[-73.932400999603757,40.821192999969355],[-73.932332999831686,40.819653999746805],[-73.932328999633725,40.819553999679826],[-73.9323269999839,40.819503000253818],[-73.9323269999839,40.819490000047303],[-73.932325000334089,40.819463000290057],[-73.932263000409819,40.818001999681577],[-73.932332999831686,40.815100000117198],[-73.932332999831686,40.814923000294911],[-73.932348999725221,40.814754000020031],[-73.932356000296224,40.814680000311249],[-73.932364999618741,40.814590999853905],[-73.932367999991797,40.814399000003817],[-73.932379999687356,40.814319000015573],[-73.932389999733104,40.814253999996616],[-73.932393999931051,40.814216999873722],[-73.932395999580876,40.814194999809224],[-73.932400999603757,40.814151000338185],[-73.932409999824586,40.814060000335346],[-73.932417000395589,40.814025000301001],[-73.932424999893215,40.813565999792907],[-73.932492999665257,40.812883999947239],[-73.932602000343508,40.811987999808856],[-73.932604999818267,40.811516999892987],[-73.932629999932615,40.81060600012453],[-73.932614999864001,40.810015000005627],[-73.932585999551691,40.809675999694647],[-73.932569999658156,40.809256000228707],[-73.932476999771737,40.808864000323169],[-73.932346000250476,40.808585999722148],[-73.932111999898751,40.80818199974177],[-73.931824999843585,40.807901999981844],[-73.931800999554142,40.807875999779071],[-73.931166000242726,40.807205000096523],[-73.93040600035954,40.806478999664591],[-73.930346999909986,40.806196000229491],[-73.929986000234962,40.805793000200325],[-73.928401000171263,40.804105999901566],[-73.928225000444144,40.803849999869449],[-73.927524999937106,40.802763999792717],[-73.927249999577498,40.802558000003444],[-73.926736999566501,40.802499999887992],[-73.92656199966433,40.802476000153682],[-73.926419000447495,40.802476000153682],[-73.925081000255986,40.802521000158386],[-73.924068999579404,40.802468000013654],[-73.923800999790799,40.802504000296189],[-73.923748000087357,40.802548000010589],[-73.92363299956132,40.802554000278462],[-73.923021999641037,40.802424999839438],[-73.922339999575641,40.80196200024718],[-73.921742000074161,40.801689000034358],[-73.921622000423568,40.801447000152265],[-73.92120399994883,40.801011000335244],[-73.921051999612857,40.800642000113214],[-73.920727999747768,40.800101000127917],[-73.920357000026982,40.799671999792956],[-73.919860999734439,40.799352999960938],[-73.919098000376522,40.799012999942406],[-73.919053000170678,40.79898799998228],[-73.918900999834705,40.798903000183564],[-73.918812000146247,40.798853000171093],[-73.918669000031116,40.798801000145374],[-73.916305999642532,40.797881000226091],[-73.91625200011417,40.797837999800429],[-73.915754000171802,40.797588999776949],[-73.914462000011056,40.797041999985368],[-73.913902999969324,40.796842999900385],[-73.913801999686982,40.796834000084068],[-73.913624000310065,40.796785999909645],[-73.91245599999786,40.796096000112769],[-73.899869000272886,40.792449000155692],[-73.892181999605683,40.790393999788186],[-73.892103999787892,40.790323000126136],[-73.891974000091523,40.790235999881197],[-73.891769999877042,40.790222000284501],[-73.89160599984551,40.790161000258621],[-73.891405000004056,40.790193999722106],[-73.891155999583702,40.790174000090431],[-73.890919999582152,40.790226000072416],[-73.890799999931559,40.790208000004789],[-73.890569999777796,40.790107999766924],[-73.890301000164271,40.78987700015837],[-73.890127000087006,40.789635999848613],[-73.889885000237669,40.78900999972376],[-73.88987000016904,40.788895000048967],[-73.889797000374116,40.788651999974597],[-73.889610999702967,40.788200000141103],[-73.889522999839429,40.788058999939665],[-73.889404999838646,40.787791000111085],[-73.88905199966122,40.787372999863891],[-73.888564999589505,40.787161000304728],[-73.888306999846634,40.787005999662981],[-73.887700000124326,40.786870000144631],[-73.887278000349951,40.786807000103359],[-73.887152999778152,40.78682600024085],[-73.886921999799469,40.786732999838158],[-73.8865929999115,40.786737999665654],[-73.886316999726986,40.786732999838158],[-73.886130000129228,40.786708000014862],[-73.885961999899749,40.786752999826042],[-73.885770000279109,40.786677999670346],[-73.885374000443989,40.786668999836444],[-73.885303000298876,40.786684999842642],[-73.88522200010803,40.786630000315249],[-73.882929000039667,40.786209000049681],[-73.878306999917925,40.785356999811995],[-73.878127999817764,40.785436000175686],[-73.877943999694736,40.785508999997653],[-73.877757000097006,40.785575999977993],[-73.877566000301286,40.785636000288768],[-73.877371000307633,40.785690000114002],[-73.87717299994091,40.785737000304024],[-73.876972999924348,40.785778000037439],[-73.876771000258003,40.785811000318702],[-73.876531000058478,40.785837000322672],[-73.876290000034061,40.785857999742966],[-73.876048000184724,40.785872000259651],[-73.875806000335402,40.785881000201599],[-73.875562999762835,40.785883999728533],[-73.875320999913498,40.785881000201599],[-73.875079000064162,40.785872000259651],[-73.874837000214811,40.785856999900275],[-73.874596000190408,40.785835999799545],[-73.874355999990897,40.785809999795191],[-73.874211000225941,40.785800000000059],[-73.874037999973567,40.785779999725172],[-73.873863999896301,40.785765000025151],[-73.87368899999413,40.785755000223254],[-73.873509999893969,40.785721000069429],[-73.873427999878217,40.785761999812671],[-73.873355000083279,40.785788999679546],[-73.873285999587992,40.785812000162089],[-73.873201999922401,40.785825000165168],[-73.87308800011958,40.785855000214859],[-73.872980999989451,40.785894000191135],[-73.872884999730005,40.785963000145458],[-73.872853999767855,40.785925999892982],[-73.872808999562011,40.785903000130105],[-73.872774000300225,40.785942000078244],[-73.872822999805706,40.785963999986542],[-73.872872000209512,40.785975000278022],[-73.87278799964561,40.786078000136698],[-73.872684999713442,40.786154000128064],[-73.872473000001335,40.786302999661835],[-73.872264999588879,40.786424000109996],[-73.872105999580228,40.78646900011362],[-73.871876000324775,40.786623999968299],[-73.871631000102383,40.786798000286893],[-73.871474999568463,40.787042999993844],[-73.871374000184431,40.787270999794714],[-73.871225000221528,40.78744499977833],[-73.871072999885556,40.787574999898574],[-73.870809000294898,40.787896999989854],[-73.870795000051217,40.787929000086812],[-73.870786999655294,40.787961999979416],[-73.870785999830375,40.787995999666066],[-73.870790000028336,40.788030000015461],[-73.870800999898989,40.788062999857864],[-73.870852999777526,40.788205999665486],[-73.870892000135598,40.788338999752419],[-73.870949999861907,40.788467999679355],[-73.870949000037001,40.788607000089939],[-73.870960999732574,40.788743000131753],[-73.87097699962608,40.788878000097839],[-73.87094700038719,40.788954000285464],[-73.870973000326444,40.789057000284622],[-73.87029899975866,40.790688000138331],[-73.870206999697146,40.7909089999401],[-73.867117999760566,40.793741999966478],[-73.863501999569323,40.797162000233584],[-73.863146999742071,40.797496999835147],[-73.862965000167193,40.797669999878877],[-73.854632000317949,40.799723999816344],[-73.85307200036857,40.800112999745522],[-73.846654000295914,40.801024000082691],[-73.845397000295264,40.801024000082691],[-73.844075999822195,40.801022999788351],[-73.835409000062086,40.802199000268658],[-73.831705999832195,40.802893999839021],[-73.830819999552304,40.803060000291701],[-73.830675999612254,40.803108000009296],[-73.830545999915913,40.803150999740957],[-73.830509000105991,40.80316399974928],[-73.830403999625673,40.803199000072745],[-73.830230000446718,40.803267000143379],[-73.827583000376038,40.803935999703512],[-73.823438000280248,40.804809999998099],[-73.817417999692537,40.805790000212895],[-73.811299000268932,40.805397000003218],[-73.804543000087463,40.803554000173797],[-73.799745000238616,40.802199000268658],[-73.797133000328017,40.801409999687884],[-73.793558999969534,40.800379999856453],[-73.793370999648573,40.800386999944237],[-73.790019999771175,40.800230000323644],[-73.787918000396829,40.800361999821561],[-73.787315999799063,40.800852999853667],[-73.784744999896333,40.802591999695828],[-73.782676000133975,40.80538600020958],[-73.77955600023526,40.811246999970926],[-73.778957999835455,40.811712999777704],[-73.780193000094798,40.826400000039591],[-73.774976999771198,40.830879000258037],[-73.774519999836713,40.831273000260992],[-73.773429000415717,40.832213999817142],[-73.766500999806809,40.838182000230454],[-73.762174000136156,40.841911000162987],[-73.761640000208772,40.842372000257541],[-73.757967000116111,40.845536000142822],[-73.757801000434753,40.845678999793009],[-73.753786999860225,40.856408999845577],[-73.753731999608647,40.856555999678299],[-73.748060000073764,40.871720999907431],[-73.749482999755784,40.872101000320271],[-73.760988000280619,40.875177999912957],[-73.781202000398324,40.880477999865754],[-73.782266999880065,40.880729000008813],[-73.782837999617357,40.880868000006004],[-73.783408000428068,40.88100599994408],[-73.783518999857847,40.881032999765416],[-73.783554999842849,40.881041999703392],[-73.783702000155941,40.881078000122336],[-73.785796999857595,40.881600000261251],[-73.791993000172411,40.883170000044132],[-73.793015999821321,40.883360999996114],[-73.79328399960994,40.88341900002532],[-73.794107000140627,40.883631000332009],[-73.794841999909465,40.883822000311923],[-73.794960999735153,40.88385299991883],[-73.796246000223221,40.88418600027989],[-73.797353000436047,40.884467999942309],[-73.799279000083288,40.884964999680747],[-73.801932000001784,40.885648000046949],[-73.803016999574979,40.885926000141325],[-73.804401999622158,40.886281000178855],[-73.804996999648907,40.886433000044981],[-73.80536800026799,40.886527999953834],[-73.806397999589606,40.886794999875193],[-73.80757500012264,40.887097999938504],[-73.808756999780215,40.887402000322354],[-73.809650999557718,40.887636999909986],[-73.809923000442595,40.887683999863185],[-73.809941999810846,40.887689999898157],[-73.810407999966174,40.887831999887915],[-73.810999999619881,40.88798299992532],[-73.811280999827275,40.888054000322988],[-73.812323999567695,40.888321000199326],[-73.812439000093718,40.88835300007149],[-73.813665999957138,40.888661000087289],[-73.814177000318296,40.888795000118499],[-73.815047999631275,40.888951000269081],[-73.815164999807152,40.888999000293644],[-73.815328999838655,40.889065999661383],[-73.815603000373358,40.88917799992268],[-73.816103999790485,40.88927600025044],[-73.816205999897718,40.889316000190078],[-73.816483999732071,40.889386000196012],[-73.816619000349604,40.889418999872348],[-73.816749000045945,40.889454000169671],[-73.817595999967779,40.889675000280519],[-73.817614000409435,40.889679000183548],[-73.818503000164057,40.889878000146773],[-73.81873199959459,40.889939999784424],[-73.818929000136407,40.889992999965301],[-73.819418999682853,40.890125000077518],[-73.819499999873699,40.890147000070584],[-73.819557999600036,40.890163000246183],[-73.819719000156823,40.890205999892501],[-73.820993999700818,40.890543000053711],[-73.821703000428698,40.890729999938706],[-73.822958999706145,40.891056000304765],[-73.82300300008707,40.891077999988276],[-73.823244000111501,40.891199000154323],[-73.823281999746328,40.891081999806502],[-73.82330199983781,40.890989000235692],[-73.82325599980706,40.890961000105641],[-73.823204999753429,40.890918000270872],[-73.823131999958491,40.890870999898382],[-73.823112999691929,40.890776999732303],[-73.823120000262932,40.890647999785493],[-73.823172000141469,40.890544999979028],[-73.823244999936392,40.890474000216877],[-73.823217000347313,40.890364999668606],[-73.823275000073636,40.890222000053825],[-73.823304000385946,40.890057000114332],[-73.823100999996356,40.889891999763371],[-73.822899000329983,40.889926000177994],[-73.822666999628083,40.889957999953083],[-73.822507999619432,40.889882000037538],[-73.822362999854477,40.889640000100144],[-73.822375000448361,40.889477000025096],[-73.823567000151684,40.889824999873781],[-73.823639000121716,40.889850000225678],[-73.823781000411927,40.889809000295564],[-73.823962999986804,40.889763000128426],[-73.824017000413477,40.889750000119655],[-73.824035999781728,40.889822999926714],[-73.824046999652381,40.889865999793983],[-73.824009000017554,40.889978000059344],[-73.824024999911103,40.889978000059344],[-73.82440300020285,40.889978000059344],[-73.825002000427574,40.890178000110204],[-73.825240999903855,40.890244000014697],[-73.82525599997247,40.890247999883272],[-73.827224000350824,40.890785000083937],[-73.827268999658344,40.890797000270055],[-73.827943000226128,40.890927999840095],[-73.82812499980102,40.891051000190465],[-73.828715999629821,40.891274000303255],[-73.830022000034262,40.89168600013943],[-73.830087000331588,40.89170000005258],[-73.830817999902479,40.89187899984455],[-73.830971999888277,40.891934999994909],[-73.83170300035745,40.892177999964908],[-73.831855999620004,40.892216999910524],[-73.832503000423628,40.892376999882032],[-73.832700000067106,40.892438000299833],[-73.832715999960627,40.892443000309314],[-73.833594999669501,40.892705999732378],[-73.835173999885455,40.893170000247409],[-73.835604999880658,40.893315000122961],[-73.836281999923187,40.893531000313033],[-73.837337000257477,40.893813999790304],[-73.837368000219612,40.8938210002011],[-73.838406999762071,40.894060999966754],[-73.838985000070366,40.895601999757467],[-73.83941100004273,40.896693000044493],[-73.83961500025724,40.897139999712834],[-73.839655000440203,40.897248999963821],[-73.83967700018151,40.897322999844974],[-73.839696000448086,40.897384999975252],[-73.839718000189393,40.897510999776301],[-73.83972400003718,40.89763299991543],[-73.839719999839218,40.897694000240115],[-73.839648999694106,40.897891000158744],[-73.839509999776936,40.898183999827936],[-73.839390999951249,40.898410000213424],[-73.839257000056946,40.898707000336032],[-73.839241000163412,40.898744000150451],[-73.839207999653141,40.898818999894246],[-73.839149000101912,40.899061000207936],[-73.839154000124793,40.899199000231711],[-73.839154999949685,40.899226000099375],[-73.839185000086928,40.899359999782398],[-73.839221000071944,40.899475000094547],[-73.839287000194176,40.899594000189381],[-73.839363000362155,40.899713000070065],[-73.840036000206695,40.900566999802514],[-73.840048999727188,40.900584999795896],[-73.840084999712204,40.900633999677574],[-73.840159000230358,40.900734999776525],[-73.840171999750837,40.900752999724205],[-73.840179000321839,40.900761999696215],[-73.840190000192493,40.900776999873109],[-73.840210000283975,40.900803999775647],[-73.840444999562308,40.901123999893166],[-73.840561999738185,40.901284000050353],[-73.840649999601723,40.901413999765779],[-73.840729000142744,40.901567000310003],[-73.840786999869067,40.901693000292738],[-73.840832000074911,40.901819000035395],[-73.84087300008278,40.901978999869286],[-73.840957999573291,40.902515999906726],[-73.840998999581174,40.902811999808179],[-73.841017000022845,40.902979000076364],[-73.84104799998498,40.903161999670552],[-73.841062000228675,40.903214000011943],[-73.841135999848532,40.903486999775687],[-73.841280999613488,40.903886000327965],[-73.841290999659222,40.903913000319221],[-73.841318000321706,40.90398700021359],[-73.841386000093777,40.904174000119035],[-73.842373999582605,40.90416600002861],[-73.843398999779666,40.904170999830626],[-73.844419999778779,40.90417199992676],[-73.844911000048455,40.904190000296921],[-73.844948999683297,40.904706000225708],[-73.844901000002707,40.905080000194332],[-73.844948999683297,40.905555999687643],[-73.845392000272398,40.905646999679938],[-73.845845999833827,40.905758999707437],[-73.846244000217098,40.905891000272256],[-73.846810999756428,40.906053999963262],[-73.847087999765876,40.90613600003077],[-73.847430999897554,40.906244000328826],[-73.847871000113599,40.906440999902799],[-73.848652999738093,40.906778000191231],[-73.848810000096947,40.90685599981785],[-73.850081000341305,40.90746799975323],[-73.850138000242708,40.907495999685779],[-73.850327000388575,40.907276000090334],[-73.850452000062063,40.907183000201769],[-73.850661000299425,40.906925000220305],[-73.850986999814353,40.90653999983931],[-73.851473000061148,40.906699999793688],[-73.852478000166741,40.907068999765684],[-73.852688000229023,40.907143000202161],[-73.853527999579839,40.907465000293143],[-73.853068999995529,40.908020999959767],[-73.852714000168291,40.908445999779673],[-73.852369000386787,40.908879999808768],[-73.852078000133659,40.908886999982975],[-73.852046000346604,40.908958999695322],[-73.851872000269324,40.909159000068968],[-73.851811999994879,40.909229000124732],[-73.851633999719638,40.909426000310646],[-73.851483999931816,40.909592000156358],[-73.851123000256791,40.910008999999881],[-73.851379000349823,40.910044000266005],[-73.852184000438854,40.909514999698992],[-73.852678000183275,40.909898999721825],[-73.85289999994113,40.90991599988169],[-73.852935000101212,40.909918999909443],[-73.853713000426083,40.909446999978783],[-73.853997000108208,40.909275999674442],[-73.854037000291186,40.909231000164048],[-73.854233999934664,40.909010000207871],[-73.854341999889712,40.908974000049831],[-73.854880999839963,40.908217000315155],[-73.854796000349452,40.908173000119696],[-73.854767999862062,40.908159000298234],[-73.854485000004843,40.908011000258611],[-73.854301999706735,40.908090999862452],[-73.854203999797448,40.908067000330895],[-73.853982999864499,40.908005000029831],[-73.853822000206037,40.907773000270886],[-73.853803999764366,40.907680999766512],[-73.853802000114541,40.907178999999189],[-73.854007000153942,40.906841999717557],[-73.854104000238323,40.906678999932083],[-73.854127999629469,40.906674999699064],[-73.854704000287953,40.90657800008416],[-73.855104000321049,40.906378000051156],[-73.855315000208236,40.90626300019958],[-73.855533999593035,40.906143999882886],[-73.855573999776013,40.906121999778051],[-73.855686999753914,40.906059999690136],[-73.855740000355681,40.906059999690136],[-73.855997000273632,40.906059999690136],[-73.856074000266517,40.906059999690136],[-73.856107999703383,40.906059999690136],[-73.856152999909241,40.906081999815598],[-73.856227000427381,40.906119000256957],[-73.856323999613451,40.906165999980402],[-73.856325000336682,40.90596600005918],[-73.856326000161602,40.905801000008317],[-73.856279000305932,40.905728000179529],[-73.856203999962858,40.905475000335279],[-73.856117999749117,40.905454000084681],[-73.856000999573268,40.905405999777706],[-73.85595899974048,40.905387999738515],[-73.855943999671865,40.905256000206485],[-73.856178000023604,40.905106999698127],[-73.856203999962858,40.905090999742036],[-73.856393999933658,40.905045000016464],[-73.856434000116636,40.90502699987897],[-73.856696999882345,40.904910000223893],[-73.856956000348447,40.904952999790446],[-73.857103999588134,40.904978999941072],[-73.857136000273499,40.904984999765468],[-73.857321000221432,40.905016999725071],[-73.857449000267948,40.904837000090517],[-73.857587000360198,40.904668999672715],[-73.857449000267948,40.904600999721737],[-73.85740400006209,40.904578999782544],[-73.857231999634649,40.90449300013514],[-73.857079000372082,40.904415999850713],[-73.857004000029022,40.904377999721376],[-73.857004000029022,40.904169000317232],[-73.857004000029022,40.904041000102616],[-73.857004000029022,40.903860999848462],[-73.857004000029022,40.903819999774875],[-73.857003000204116,40.903736000024963],[-73.856999999831061,40.90357900000425],[-73.857199000022689,40.90287800000926],[-73.857707000010805,40.902571999879584],[-73.857804999920106,40.902540000094895],[-73.857825000011587,40.902532999927736],[-73.857920000446128,40.902493999952931],[-73.858041999746547,40.902443999968945],[-73.858199999930306,40.902379000136946],[-73.858220999846708,40.902335000130897],[-73.858302000037554,40.902077000246891],[-73.858469000442128,40.902159999940402],[-73.85901400024018,40.902432999980995],[-73.859097000080837,40.902470999869919],[-73.859113999799291,40.902471999991761],[-73.859604000244062,40.902178000179241],[-73.85939199963363,40.90189499981804],[-73.859302999945172,40.901778000053888],[-73.859018000438141,40.901492999744832],[-73.859003000369512,40.901477999730261],[-73.859036999806406,40.901469999992706],[-73.859404000227514,40.901378000225321],[-73.859307999968053,40.901137999845972],[-73.859215000081619,40.900905999760532],[-73.859204000210966,40.900877999753703],[-73.85929999957213,40.900494000307212],[-73.859309999617864,40.900479000066134],[-73.85939300035686,40.900381000036731],[-73.859632999658061,40.900458000266021],[-73.860005999926955,40.900565000180158],[-73.860103999836241,40.900578000100822],[-73.860256999997134,40.900615999697521],[-73.860320999571229,40.900638000276047],[-73.860775000030984,40.90078699998918],[-73.860955999780941,40.900845999828412],[-73.861590000165762,40.901051000333666],[-73.862041000252461,40.901203000218601],[-73.862401000102594,40.901340999847356],[-73.862556999738189,40.901427000198559],[-73.862642999951916,40.901473999861636],[-73.862859999686904,40.901525000036088],[-73.862878999953466,40.90153799976806],[-73.864669000056594,40.901793000000367],[-73.865255999687434,40.901949000057201],[-73.865268000281304,40.90196199970589],[-73.865634999804101,40.9020860000387],[-73.866952000079223,40.902474999678311],[-73.867875999993942,40.902982999854025],[-73.869045999955972,40.903333000169347],[-73.870730999578797,40.903825999704416],[-73.870939999816173,40.903886999749439],[-73.872734999942168,40.904414999758266],[-73.87291300021738,40.904466999793435],[-73.873949000285123,40.904767000138008],[-73.874087000377372,40.904807000216948],[-73.874622999954582,40.904959999701411],[-73.874797000031847,40.905009999820081],[-73.875558999564873,40.905232000325022],[-73.875598999747851,40.905243999927364],[-73.876228999934696,40.905430000275025],[-73.876454999890498,40.905496999976414],[-73.876587999959895,40.905538999764744],[-73.87762800022557,40.905853999703325],[-73.877741000203471,40.905888000061744],[-73.877855000006292,40.905921999723809],[-73.878012000365132,40.905964999990182],[-73.878188999917143,40.905982999872322],[-73.878219999879278,40.905982999872322],[-73.878349999575605,40.905982999872322],[-73.878826999601586,40.9061880000706],[-73.879239000228537,40.906364999912682],[-73.879531000306599,40.906440999902799],[-73.880111000264733,40.906591000180811],[-73.880636999796195,40.906744999668675],[-73.880928999874257,40.906829999726192],[-73.881442999710146,40.907003999726832],[-73.881825000199896,40.907133999740644],[-73.88282899958223,40.907381999789294],[-73.882992999613762,40.907422999691292],[-73.884053999795825,40.907496999731627],[-73.884105999674389,40.907500999914916],[-73.884126999590777,40.9075030000065],[-73.884246000314775,40.907511999738865],[-73.884725999815487,40.907684999938681],[-73.884832000120696,40.907723000204541],[-73.885401000208162,40.907977000312805],[-73.88600999958031,40.907978999711062],[-73.886124000281455,40.908015999769944],[-73.886165000289324,40.908030000300556],[-73.886237000259356,40.908051999770628],[-73.887983999806451,40.908593000174264],[-73.888393999885295,40.908719999697801],[-73.891805000037138,40.909777999815596],[-73.891928000060773,40.909809000160564],[-73.89220500007022,40.909878000197239],[-73.892799000272063,40.910057999688377],[-73.896542999611526,40.911292999671467],[-73.89663399984812,40.911323999984965],[-73.897253000164312,40.91165499992978],[-73.897360000294427,40.91167200031704],[-73.89742399986855,40.911692999950738],[-73.898120000177627,40.911798000055818],[-73.898681999694105,40.911870999972429],[-73.899505000224806,40.911977999751038],[-73.899788999906946,40.912071999661123],[-73.899969999656903,40.912132000270461],[-73.90069699992813,40.91238099987541],[-73.902106000264752,40.912878999666212],[-73.902454000419311,40.912979000109821],[-73.903805999956191,40.913353000129547],[-73.9041940002937,40.913460000225143],[-73.905910999703593,40.913937999711173],[-73.905946999688609,40.913947999873692],[-73.908301999681257,40.914608999727079],[-73.908327999620539,40.914615999973606],[-73.908813999867334,40.914746999892628],[-73.908839999806602,40.914754000124596],[-73.909470999818367,40.914923999904673],[-73.909495999932716,40.914931000117853],[-73.910005999570657,40.915075999809055],[-73.910279000280454,40.915187000228578],[-73.910516000106909,40.915282000256092],[-73.910808000184957,40.915371999834697],[-73.918316999678623,40.917705000258394],[-73.918346999815824,40.917630000210266],[-73.919209999631192,40.915449000259422],[-73.919430999564128,40.914891999987454],[-73.919934000427688,40.913623000266334],[-73.919946000123247,40.913591999673095],[-73.920967999947251,40.911013000276427],[-73.921240999758737,40.910322999688113],[-73.922466999797265,40.907236000146973],[-73.923307000046393,40.905062000066359],[-73.923841999798682,40.903674999840611],[-73.924235000159072,40.902735999721301],[-73.92495300020947,40.901017999669271],[-73.925665000412096,40.899151000138048],[-73.925922000330047,40.898477000236376],[-73.926549000143837,40.89687899999543],[-73.927119000056251,40.895496000190874],[-73.927242000079886,40.895197999679503],[-73.92829400004112,40.892562000151962],[-73.929186999993718,40.890307999920935],[-73.929428000018135,40.889692000206253],[-73.929454999782308,40.889621999844934],[-73.929821000378524,40.888682000236848],[-73.931728999584109,40.885578000161559],[-73.932573000031212,40.884210000326824],[-73.933651999756634,40.882462999920008],[-73.933808000290554,40.882213999737949]]]},"properties":{"STATE":"36","COUNTY":"005","NAME":"Bronx County","BASENAME":"Bronx"}}]}