{
"type": "FeatureCollection",
"name": "tl_2023_36005_areawater",
"crs": { "type": "name", "properties": { "name": "urn:ogc:def:crs:EPSG::4269" } },
"features": [
{"type":"Feature","properties":{"ANSICODE":null,"HYDROID":"110391537963","FULLNAME":"Hudson Riv","MTFCC":"H3010","ALAND":0,"AWATER":3094534,"INTPTLAT":"+40.8980614","INTPTLON":"-73.9216474"},"geometry":{"type":"Polygon","coordinates":[[[-73.933808,40.882214],[-73.933652,40.882463],[-73.932573,40.88421],[-73.931729,40.885578],[-73.929821,40.888682],[-73.929455,40.889622],[-73.929428,40.889692],[-73.929187,40.890308],[-73.928294,40.892562],[-73.927242,40.895198],[-73.927119,40.895496],[-73.926549,40.896879],[-73.925922,40.898477],[-73.925665,40.899151],[-73.924953,40.901018],[-73.924235,40.902736],[-73.923842,40.903675],[-73.923307,40.905062],[-73.922467,40.907236],[-73.921241,40.910323],[-73.920968,40.911013],[-73.919946,40.913592],[-73.919934,40.913623],[-73.919431,40.914892],[-73.91921,40.915449],[-73.918347,40.91763],[-73.918317,40.917705],[-73.910808,40.915372],[-73.910516,40.915282],[-73.910819,40.91489],[-73.911588,40.914029],[-73.911818,40.912942],[-73.913213,40.907909],[-73.914294,40.904239],[-73.915124,40.903125],[-73.917284,40.897043],[-73.91739,40.89673],[-73.917985,40.894892],[-73.918358,40.894586],[-73.91815,40.894112],[-73.919468,40.89156],[-73.919761,40.89113],[-73.920388,40.889199],[-73.920956,40.887288],[-73.924974,40.879144],[-73.933788,40.882207],[-73.933808,40.882214]]]}},
{"type":"Feature","properties":{"ANSICODE":null,"HYDROID":"110391538053","FULLNAME":"Harlem River Bhl","MTFCC":"H3010","ALAND":0,"AWATER":1662,"INTPTLAT":"+40.8148032","INTPTLON":"-73.9319924"},"geometry":{"type":"Polygon","coordinates":[[[-73.932349,40.814754],[-73.932333,40.814923],[-73.931649,40.814941],[-73.931656,40.814671],[-73.932356,40.81468],[-73.932349,40.814754]]]}},
{"type":"Feature","properties":{"ANSICODE":null,"HYDROID":"110391538066","FULLNAME":"Long Island Sound","MTFCC":"H2051","ALAND":0,"AWATER":14702215,"INTPTLAT":"+40.8569515","INTPTLON":"-73.7757648"},"geometry":{"type":"Polygon","coordinates":[[[-73.808816,40.871249],[-73.807876,40.871031],[-73.80577,40.869521],[-73.805738,40.869294],[-73.805933,40.869131],[-73.805819,40.868904],[-73.805473,40.868852],[-73.805234,40.869115],[-73.804893,40.869164],[-73.804552,40.868806],[-73.804097,40.868839],[-73.802975,40.868904],[-73.802553,40.870464],[-73.801383,40.871309],[-73.80096,40.871374],[-73.800343,40.872576],[-73.799709,40.873665],[-73.799709,40.873925],[-73.798994,40.874478],[-73.798637,40.874201],[-73.798003,40.874299],[-73.796849,40.876135],[-73.796914,40.87646],[-73.796102,40.877013],[-73.795224,40.878816],[-73.794997,40.879678],[-73.79524,40.880425],[-73.795062,40.880555],[-73.794688,40.88062],[-73.794363,40.881351],[-73.793664,40.881904],[-73.793702,40.882897],[-73.793016,40.883361],[-73.791993,40.88317],[-73.785797,40.8816],[-73.783702,40.881078],[-73.783555,40.881042],[-73.783519,40.881033],[-73.783408,40.881006],[-73.782838,40.880868],[-73.782267,40.880729],[-73.781202,40.880478],[-73.760988,40.875178],[-73.749483,40.872101],[-73.74806,40.871721],[-73.753732,40.856556],[-73.753787,40.856409],[-73.757801,40.845679],[-73.757967,40.845536],[-73.76164,40.842372],[-73.762174,40.841911],[-73.766501,40.838182],[-73.773429,40.832214],[-73.77452,40.831273],[-73.789581,40.834292],[-73.789593,40.834057],[-73.790125,40.833985],[-73.790193,40.834415],[-73.808787,40.838145],[-73.801855,40.840009],[-73.793575,40.856326],[-73.794032,40.856551],[-73.793687,40.859176],[-73.791904,40.860829],[-73.79018,40.868148],[-73.785828,40.869046],[-73.784081,40.870153],[-73.782514,40.871658],[-73.782727,40.872424],[-73.783054,40.87268],[-73.783671,40.87268],[-73.783824,40.872805],[-73.783432,40.873179],[-73.78334,40.873513],[-73.783587,40.873781],[-73.783805,40.873737],[-73.784022,40.873693],[-73.784678,40.873105],[-73.785389,40.872048],[-73.78556,40.872153],[-73.785681,40.872387],[-73.78578,40.87282],[-73.7857,40.873229],[-73.785638,40.873634],[-73.785723,40.873701],[-73.785817,40.873635],[-73.786015,40.873259],[-73.786353,40.872811],[-73.787233,40.872374],[-73.787562,40.872555],[-73.787576,40.872839],[-73.787703,40.872997],[-73.787338,40.873401],[-73.786906,40.87431],[-73.78609,40.875223],[-73.785794,40.875854],[-73.7853,40.876634],[-73.785183,40.87775],[-73.785776,40.878884],[-73.786425,40.87915],[-73.788107,40.878946],[-73.789244,40.878979],[-73.789797,40.879223],[-73.790008,40.879515],[-73.789959,40.879694],[-73.789472,40.879759],[-73.789082,40.879986],[-73.789082,40.88036],[-73.78926,40.880783],[-73.789602,40.881043],[-73.790073,40.881075],[-73.790902,40.880896],[-73.790934,40.880685],[-73.790674,40.880474],[-73.790723,40.88023],[-73.791113,40.880051],[-73.791552,40.880068],[-73.791844,40.879938],[-73.792169,40.879678],[-73.792575,40.879661],[-73.793095,40.879385],[-73.79329,40.878816],[-73.793664,40.878735],[-73.794022,40.878378],[-73.794525,40.8775],[-73.794363,40.877273],[-73.793437,40.877013],[-73.793502,40.876899],[-73.793697,40.87672],[-73.793632,40.876298],[-73.793778,40.875745],[-73.793973,40.875111],[-73.794022,40.874331],[-73.794672,40.873129],[-73.795192,40.872885],[-73.795224,40.872316],[-73.795907,40.872089],[-73.797174,40.872446],[-73.79758,40.872414],[-73.797997,40.872134],[-73.801448,40.866856],[-73.801805,40.865898],[-73.802325,40.865589],[-73.802829,40.865589],[-73.803089,40.865703],[-73.803138,40.866158],[-73.802982,40.866613],[-73.803073,40.866986],[-73.803902,40.867116],[-73.804795,40.866596],[-73.80473,40.867604],[-73.804909,40.868254],[-73.805868,40.868368],[-73.806713,40.868741],[-73.806655,40.86953],[-73.807574,40.869749],[-73.807834,40.869863],[-73.807477,40.87022],[-73.807877,40.87052],[-73.808484,40.870448],[-73.808484,40.87061],[-73.808346,40.870878],[-73.808816,40.871249]],[[-73.792346,40.855534],[-73.790367,40.85241],[-73.789692,40.851568],[-73.789428,40.851185],[-73.789877,40.85048],[-73.789984,40.849824],[-73.790082,40.849306],[-73.791165,40.847675],[-73.791192,40.846958],[-73.790864,40.846323],[-73.790277,40.845504],[-73.789765,40.844962],[-73.789378,40.844314],[-73.789081,40.843664],[-73.788861,40.843325],[-73.788756,40.843007],[-73.788309,40.842417],[-73.787954,40.841804],[-73.787486,40.841232],[-73.787417,40.841024],[-73.787183,40.840678],[-73.786912,40.840085],[-73.786839,40.839944],[-73.785975,40.83961],[-73.785433,40.839147],[-73.785253,40.838522],[-73.78568,40.838084],[-73.784028,40.836588],[-73.782884,40.837561],[-73.781711,40.838523],[-73.781458,40.839273],[-73.781579,40.840098],[-73.78248,40.840593],[-73.781314,40.841125],[-73.78156,40.841921],[-73.782226,40.842735],[-73.782952,40.842706],[-73.783305,40.844524],[-73.782396,40.844728],[-73.782427,40.845219],[-73.783078,40.845164],[-73.783079,40.845335],[-73.783079,40.845411],[-73.782913,40.845683],[-73.782531,40.845729],[-73.782596,40.845943],[-73.78235,40.845989],[-73.782486,40.846416],[-73.782226,40.846505],[-73.782083,40.846863],[-73.782246,40.84711],[-73.782421,40.847298],[-73.782709,40.848094],[-73.783355,40.849335],[-73.78359,40.850047],[-73.784363,40.850436],[-73.784871,40.851027],[-73.783666,40.851432],[-73.785698,40.851457],[-73.786299,40.852031],[-73.787124,40.852464],[-73.788327,40.853605],[-73.787732,40.853759],[-73.787558,40.853822],[-73.787279,40.853914],[-73.787107,40.853972],[-73.787044,40.854012],[-73.787044,40.854051],[-73.78707,40.854107],[-73.787134,40.854173],[-73.787279,40.854212],[-73.787447,40.854215],[-73.787788,40.854162],[-73.78818,40.854072],[-73.788439,40.854043],[-73.788515,40.854337],[-73.788701,40.855061],[-73.78885,40.856316],[-73.788894,40.857977],[-73.789338,40.858817],[-73.790129,40.858957],[-73.790515,40.858139],[-73.791312,40.858141],[-73.791718,40.857313],[-73.792454,40.857002],[-73.792033,40.85614],[-73.79256,40.855973],[-73.792346,40.855534]],[[-73.789312,40.834465],[-73.788333,40.834668],[-73.788457,40.83531],[-73.78951,40.835364],[-73.789312,40.834465]],[[-73.787495,40.858802],[-73.787291,40.858796],[-73.786707,40.858777],[-73.78585,40.859144],[-73.784854,40.859041],[-73.78431,40.859651],[-73.784868,40.860272],[-73.787551,40.859885],[-73.787495,40.858802]],[[-73.786727,40.873074],[-73.786625,40.873035],[-73.786486,40.87321],[-73.786329,40.873271],[-73.786262,40.873394],[-73.786499,40.873481],[-73.786655,40.873394],[-73.786727,40.873074]],[[-73.786333,40.873677],[-73.78619,40.873599],[-73.786054,40.873783],[-73.786194,40.873886],[-73.786328,40.873805],[-73.786333,40.873677]],[[-73.785433,40.86247],[-73.78512,40.862916],[-73.785774,40.862879],[-73.785433,40.86247]],[[-73.784847,40.861666],[-73.784575,40.862172],[-73.785305,40.86203],[-73.784847,40.861666]],[[-73.783678,40.855174],[-73.783024,40.855093],[-73.782832,40.855871],[-73.783435,40.856363],[-73.783947,40.85563],[-73.783678,40.855174]],[[-73.781564,40.855001],[-73.780905,40.854968],[-73.780618,40.855735],[-73.781227,40.856088],[-73.781563,40.855744],[-73.781564,40.855001]],[[-73.781206,40.876285],[-73.781033,40.876484],[-73.781127,40.876653],[-73.781327,40.876361],[-73.781206,40.876285]],[[-73.775431,40.861529],[-73.774276,40.861779],[-73.774355,40.862262],[-73.775176,40.86213],[-73.775431,40.861529]],[[-73.774581,40.874109],[-73.77448,40.874078],[-73.774352,40.87417],[-73.774253,40.874285],[-73.774032,40.874394],[-73.773976,40.874599],[-73.774151,40.874693],[-73.774076,40.874815],[-73.774096,40.874896],[-73.774203,40.874881],[-73.774536,40.87471],[-73.774554,40.874548],[-73.774513,40.874465],[-73.774571,40.874332],[-73.774609,40.874203],[-73.774581,40.874109]],[[-73.773231,40.860747],[-73.772902,40.861209],[-73.773107,40.861615],[-73.773513,40.861242],[-73.773231,40.860747]],[[-73.77288,40.871246],[-73.771097,40.870693],[-73.769907,40.870477],[-73.77081,40.87155],[-73.772178,40.871981],[-73.77288,40.871246]],[[-73.77251,40.851679],[-73.772264,40.851644],[-73.77208,40.851595],[-73.771983,40.851497],[-73.771921,40.851356],[-73.771015,40.849895],[-73.770998,40.849627],[-73.77104,40.84924],[-73.771242,40.848518],[-73.77136,40.847804],[-73.771578,40.847586],[-73.771628,40.847368],[-73.771477,40.847065],[-73.77125,40.846939],[-73.770931,40.846771],[-73.770629,40.846419],[-73.770058,40.845747],[-73.769126,40.844899],[-73.768966,40.844907],[-73.768748,40.845033],[-73.768286,40.845067],[-73.768042,40.845092],[-73.767821,40.845126],[-73.767857,40.845541],[-73.768977,40.846661],[-73.769351,40.847096],[-73.769626,40.847659],[-73.769626,40.847891],[-73.769546,40.848167],[-73.768989,40.849458],[-73.769008,40.849771],[-73.768634,40.850634],[-73.768659,40.850799],[-73.769155,40.852072],[-73.769259,40.852501],[-73.769234,40.852843],[-73.769161,40.853039],[-73.768934,40.853168],[-73.768622,40.853247],[-73.768524,40.853321],[-73.768292,40.853706],[-73.767979,40.854245],[-73.767214,40.854502],[-73.767049,40.854502],[-73.766816,40.854551],[-73.766339,40.854784],[-73.765904,40.854888],[-73.765458,40.854863],[-73.765323,40.8549],[-73.765176,40.855169],[-73.765194,40.855298],[-73.766449,40.856302],[-73.766902,40.856583],[-73.768218,40.85763],[-73.768328,40.857722],[-73.768328,40.857967],[-73.768279,40.858346],[-73.768451,40.858579],[-73.76973,40.859613],[-73.771004,40.860109],[-73.772267,40.859896],[-73.772436,40.859772],[-73.77246,40.85965],[-73.772387,40.859454],[-73.772123,40.858989],[-73.772087,40.858854],[-73.77216,40.858683],[-73.772191,40.858475],[-73.772111,40.857648],[-73.772093,40.857618],[-73.771989,40.857465],[-73.771725,40.856914],[-73.771683,40.856596],[-73.771695,40.856277],[-73.771713,40.856051],[-73.771615,40.855843],[-73.771597,40.855555],[-73.771658,40.854912],[-73.771995,40.854361],[-73.772393,40.853884],[-73.772356,40.853143],[-73.772295,40.852978],[-73.772117,40.852923],[-73.771915,40.852905],[-73.77183,40.852813],[-73.771836,40.852678],[-73.771866,40.852531],[-73.772019,40.852476],[-73.77216,40.852458],[-73.772331,40.852458],[-73.772423,40.852439],[-73.772478,40.852354],[-73.772503,40.852225],[-73.772503,40.852023],[-73.77251,40.851679]],[[-73.770229,40.865139],[-73.769792,40.865128],[-73.76965,40.865486],[-73.770069,40.865526],[-73.770229,40.865139]],[[-73.767794,40.866781],[-73.767099,40.866705],[-73.766689,40.867098],[-73.767601,40.867497],[-73.767794,40.866781]]]}},
{"type":"Feature","properties":{"ANSICODE":null,"HYDROID":"110391537955","FULLNAME":"Harlem Riv","MTFCC":"H3010","ALAND":0,"AWATER":2916,"INTPTLAT":"+40.8243546","INTPTLON":"-73.9322501"},"geometry":{"type":"Polygon","coordinates":[[[-73.932661,40.824538],[-73.931874,40.824562],[-73.931818,40.82419],[-73.932632,40.824134],[-73.932643,40.824356],[-73.932661,40.824538]]]}},
{"type":"Feature","properties":{"ANSICODE":null,"HYDROID":"110391538050","FULLNAME":"Harlem River Bhl","MTFCC":"H3010","ALAND":0,"AWATER":1925,"INTPTLAT":"+40.8214555","INTPTLON":"-73.9320308"},"geometry":{"type":"Polygon","coordinates":[[[-73.932425,40.821561],[-73.931653,40.82161],[-73.931615,40.821484],[-73.931615,40.821384],[-73.931716,40.821359],[-73.932407,40.821284],[-73.932425,40.821561]]]}},
{"type":"Feature","properties":{"ANSICODE":null,"HYDROID":"110391537956","FULLNAME":"Harlem Riv","MTFCC":"H3010","ALAND":0,"AWATER":17989,"INTPTLAT":"+40.8599298","INTPTLON":"-73.9166795"},"geometry":{"type":"Polygon","coordinates":[[[-73.918206,40.858679],[-73.916975,40.859909],[-73.9165,40.860384],[-73.914901,40.861983],[-73.914886,40.861972],[-73.91489,40.861962],[-73.914732,40.86165],[-73.916385,40.860037],[-73.916944,40.859311],[-73.918127,40.85813],[-73.9185,40.858352],[-73.918206,40.858679]]]}},
{"type":"Feature","properties":{"ANSICODE":null,"HYDROID":"110391537926","FULLNAME":"Bronx Riv","MTFCC":"H3010","ALAND":0,"AWATER":39710,"INTPTLAT":"+40.8498071","INTPTLON":"-73.8736095"},"geometry":{"type":"Polygon","coordinates":[[[-73.874224,40.849294],[-73.873913,40.850337],[-73.874059,40.852977],[-73.872938,40.850428],[-73.872782,40.849517],[-73.873159,40.848356],[-73.874122,40.847708],[-73.874401,40.848389],[-73.874224,40.849294]]]}},
{"type":"Feature","properties":{"ANSICODE":null,"HYDROID":"110391537954","FULLNAME":"Harlem Riv","MTFCC":"H3010","ALAND":0,"AWATER":27111,"INTPTLAT":"+40.8647216","INTPTLON":"-73.9121241"},"geometry":{"type":"Polygon","coordinates":[[[-73.91434,40.862521],[-73.910851,40.866528],[-73.910209,40.867591],[-73.910056,40.867849],[-73.910027,40.867192],[-73.910913,40.865938],[-73.912111,40.864248],[-73.912909,40.863068],[-73.913723,40.862737],[-73.91434,40.862521]]]}},
{"type":"Feature","properties":{"ANSICODE":null,"HYDROID":"110391538003","FULLNAME":"Hutchinson Riv","MTFCC":"H3010","ALAND":0,"AWATER":5140,"INTPTLAT":"+40.8883268","INTPTLON":"-73.8240675"},"geometry":{"type":"Polygon","coordinates":[[[-73.824047,40.889866],[-73.824036,40.889823],[-73.824017,40.88975],[-73.823963,40.889763],[-73.823781,40.889809],[-73.823639,40.88985],[-73.823567,40.889825],[-73.823586,40.889743],[-73.823783,40.88952],[-73.824106,40.888942],[-73.824012,40.888569],[-73.823583,40.887971],[-73.823752,40.887832],[-73.824015,40.887814],[-73.824234,40.888566],[-73.824047,40.889866]]]}},
{"type":"Feature","properties":{"ANSICODE":null,"HYDROID":"110391537972","FULLNAME":"Hammond Crk","MTFCC":"H3010","ALAND":0,"AWATER":497388,"INTPTLAT":"+40.8121023","INTPTLON":"-73.7989101"},"geometry":{"type":"Polygon","coordinates":[[[-73.807069,40.816531],[-73.806752,40.816583],[-73.806574,40.81661],[-73.806426,40.816603],[-73.806283,40.816376],[-73.806062,40.816186],[-73.805723,40.815968],[-73.805476,40.815849],[-73.805039,40.815571],[-73.804589,40.815189],[-73.80422,40.814741],[-73.803988,40.814531],[-73.803755,40.814289],[-73.803391,40.81389],[-73.803113,40.813444],[-73.803185,40.813201],[-73.803461,40.812717],[-73.803259,40.8126],[-73.803035,40.812508],[-73.802803,40.812482],[-73.802447,40.812626],[-73.802338,40.812877],[-73.802103,40.812992],[-73.801631,40.81296],[-73.801535,40.81346],[-73.801122,40.813715],[-73.800736,40.813987],[-73.800286,40.8143],[-73.800045,40.814599],[-73.799571,40.815108],[-73.799075,40.815617],[-73.798615,40.81552],[-73.798185,40.815827],[-73.797726,40.815733],[-73.797576,40.815821],[-73.796648,40.815122],[-73.796036,40.814558],[-73.795264,40.813737],[-73.794588,40.812659],[-73.794179,40.811955],[-73.793988,40.811389],[-73.79378,40.810657],[-73.793713,40.809999],[-73.793688,40.809001],[-73.79362,40.807413],[-73.795684,40.808401],[-73.798164,40.809542],[-73.798704,40.809677],[-73.800069,40.809694],[-73.801061,40.810197],[-73.801357,40.810312],[-73.801204,40.810522],[-73.801419,40.81065],[-73.80184,40.810316],[-73.802116,40.810106],[-73.802445,40.81011],[-73.802626,40.810274],[-73.802786,40.810419],[-73.80291,40.810527],[-73.80303,40.810668],[-73.803184,40.810865],[-73.803295,40.811026],[-73.803306,40.811153],[-73.803248,40.811241],[-73.80344,40.811595],[-73.803723,40.811894],[-73.803931,40.8121],[-73.804062,40.812058],[-73.804099,40.812115],[-73.804387,40.81201],[-73.804477,40.812056],[-73.804538,40.812096],[-73.804615,40.812096],[-73.804738,40.812052],[-73.804815,40.812054],[-73.804986,40.812218],[-73.805041,40.812484],[-73.805045,40.812624],[-73.80542,40.813294],[-73.805396,40.814362],[-73.805486,40.81484],[-73.805757,40.815037],[-73.806453,40.815351],[-73.806816,40.815816],[-73.806872,40.816024],[-73.806861,40.816104],[-73.806971,40.816198],[-73.807054,40.816308],[-73.807077,40.816485],[-73.807069,40.816531]]]}},
{"type":"Feature","properties":{"ANSICODE":null,"HYDROID":"110391538065","FULLNAME":"Long Island Sound","MTFCC":"H2051","ALAND":0,"AWATER":3460009,"INTPTLAT":"+40.8217344","INTPTLON":"-73.7909998"},"geometry":{"type":"Polygon","coordinates":[[[-73.813804,40.825468],[-73.798866,40.827553],[-73.774977,40.830879],[-73.780193,40.8264],[-73.778958,40.811713],[-73.779556,40.811247],[-73.790679,40.814182],[-73.797361,40.815946],[-73.797453,40.815892],[-73.797576,40.815821],[-73.797715,40.816048],[-73.798065,40.816617],[-73.798064,40.816811],[-73.79837,40.816924],[-73.79866,40.81694],[-73.800548,40.817653],[-73.800527,40.81789],[-73.800687,40.818099],[-73.800864,40.818131],[-73.801154,40.818131],[-73.801299,40.818099],[-73.801862,40.818308],[-73.802216,40.81834],[-73.802619,40.818276],[-73.803491,40.818229],[-73.804624,40.819113],[-73.805728,40.820177],[-73.805723,40.820607],[-73.806023,40.820978],[-73.806017,40.821218],[-73.805866,40.821526],[-73.805819,40.821615],[-73.805971,40.821917],[-73.806264,40.822253],[-73.806211,40.82261],[-73.806532,40.824179],[-73.807229,40.825455],[-73.808469,40.825861],[-73.80968,40.825263],[-73.810822,40.824884],[-73.811764,40.824441],[-73.812522,40.824487],[-73.813077,40.824158],[-73.81307,40.823913],[-73.813219,40.823878],[-73.813738,40.824077],[-73.813804,40.825468]]]}},
{"type":"Feature","properties":{"ANSICODE":null,"HYDROID":"110391538016","FULLNAME":"Jerome Park Reservoir","MTFCC":"H2040","ALAND":0,"AWATER":345779,"INTPTLAT":"+40.8785098","INTPTLON":"-73.8950364"},"geometry":{"type":"Polygon","coordinates":[[[-73.899645,40.875752],[-73.898045,40.877589],[-73.89762,40.878427],[-73.896323,40.879445],[-73.8959,40.881527],[-73.894722,40.882042],[-73.89431,40.881915],[-73.892665,40.882232],[-73.89137,40.882043],[-73.889013,40.882168],[-73.889127,40.881957],[-73.889269,40.881694],[-73.890336,40.880755],[-73.890828,40.880035],[-73.892857,40.878658],[-73.893095,40.87798],[-73.895798,40.875986],[-73.896049,40.875026],[-73.897408,40.873366],[-73.898281,40.874111],[-73.899905,40.874674],[-73.899645,40.875752]]]}},
{"type":"Feature","properties":{"ANSICODE":null,"HYDROID":"110391537911","FULLNAME":"East Riv","MTFCC":"H3010","ALAND":0,"AWATER":3279497,"INTPTLAT":"+40.7986418","INTPTLON":"-73.8912704"},"geometry":{"type":"Polygon","coordinates":[[[-73.913624,40.796786],[-73.91141,40.796686],[-73.909885,40.797995],[-73.90853,40.799092],[-73.906181,40.801496],[-73.905885,40.801712],[-73.905106,40.802518],[-73.904881,40.802793],[-73.904584,40.803111],[-73.903707,40.803811],[-73.903347,40.803847],[-73.902612,40.804426],[-73.90247,40.804384],[-73.902293,40.804554],[-73.902392,40.804624],[-73.902184,40.804877],[-73.900695,40.804989],[-73.898486,40.805477],[-73.898137,40.805646],[-73.898221,40.806414],[-73.897345,40.806546],[-73.897273,40.806138],[-73.896252,40.806246],[-73.896336,40.806714],[-73.895111,40.806859],[-73.895015,40.806306],[-73.894835,40.806222],[-73.89176,40.80645],[-73.891532,40.805982],[-73.891184,40.805994],[-73.89086,40.80597],[-73.890391,40.805874],[-73.890004,40.80574],[-73.889755,40.805958],[-73.889242,40.805937],[-73.889402,40.805297],[-73.889101,40.804968],[-73.888744,40.804748],[-73.888361,40.804776],[-73.888178,40.804901],[-73.888059,40.80494],[-73.887703,40.804831],[-73.887511,40.804557],[-73.88757,40.804185],[-73.886935,40.803707],[-73.886277,40.803378],[-73.885894,40.802775],[-73.88551,40.802364],[-73.885263,40.802336],[-73.884818,40.801902],[-73.883892,40.801746],[-73.883541,40.802129],[-73.880529,40.802564],[-73.878355,40.802952],[-73.878113,40.802295],[-73.877906,40.802272],[-73.878359,40.801302],[-73.875668,40.80097],[-73.87564,40.801418],[-73.874736,40.801172],[-73.874706,40.800931],[-73.873424,40.800811],[-73.87169,40.801534],[-73.87157,40.80176],[-73.87172,40.801806],[-73.871701,40.801832],[-73.87163,40.801926],[-73.871102,40.802605],[-73.871187,40.802049],[-73.871238,40.801719],[-73.871253,40.801619],[-73.871281,40.801433],[-73.872264,40.794992],[-73.870207,40.790909],[-73.870299,40.790688],[-73.870973,40.789057],[-73.871164,40.78976],[-73.871408,40.790285],[-73.871957,40.79081],[-73.872579,40.791225],[-73.87347,40.791664],[-73.873885,40.791811],[-73.874361,40.791859],[-73.875301,40.792396],[-73.875448,40.792677],[-73.875923,40.793153],[-73.878181,40.79441],[-73.879658,40.79485],[-73.882929,40.795289],[-73.883844,40.795728],[-73.886834,40.798037],[-73.88789,40.798404],[-73.888302,40.798214],[-73.888787,40.797876],[-73.889141,40.797791],[-73.889873,40.797889],[-73.89012,40.798004],[-73.890886,40.797779],[-73.891936,40.796705],[-73.892656,40.793824],[-73.892766,40.792836],[-73.892607,40.792433],[-73.89251,40.791725],[-73.892351,40.790773],[-73.892182,40.790394],[-73.899869,40.792449],[-73.912456,40.796096],[-73.913624,40.796786]],[[-73.90021,40.799264],[-73.899024,40.799172],[-73.89864,40.799101],[-73.897985,40.799604],[-73.896467,40.800791],[-73.89833,40.802413],[-73.899388,40.801935],[-73.899489,40.800901],[-73.900038,40.800909],[-73.900203,40.800472],[-73.900285,40.799842],[-73.90021,40.799264]],[[-73.898711,40.795953],[-73.897328,40.795895],[-73.898135,40.796995],[-73.899561,40.796335],[-73.898711,40.795953]]]}},
{"type":"Feature","properties":{"ANSICODE":null,"HYDROID":"110391537974","FULLNAME":"Pugsley Crk","MTFCC":"H3010","ALAND":0,"AWATER":734997,"INTPTLAT":"+40.8077785","INTPTLON":"-73.8491010"},"geometry":{"type":"Polygon","coordinates":[[[-73.855751,40.815561],[-73.855517,40.815833],[-73.855678,40.815515],[-73.855678,40.815275],[-73.855534,40.815008],[-73.855356,40.814672],[-73.855219,40.814446],[-73.855068,40.814261],[-73.854547,40.813987],[-73.853965,40.813733],[-73.853519,40.813616],[-73.853334,40.813603],[-73.853149,40.81363],[-73.853101,40.813706],[-73.852943,40.813884],[-73.852649,40.814007],[-73.852697,40.8141],[-73.852697,40.814226],[-73.852676,40.814329],[-73.852799,40.814309],[-73.852868,40.814411],[-73.852854,40.814453],[-73.852656,40.814453],[-73.85256,40.814494],[-73.852361,40.814425],[-73.852484,40.814309],[-73.85245,40.814254],[-73.852196,40.81437],[-73.851957,40.814336],[-73.851703,40.814315],[-73.851511,40.814254],[-73.851401,40.81411],[-73.850603,40.81393],[-73.850456,40.813562],[-73.850058,40.813493],[-73.849441,40.813246],[-73.848893,40.813055],[-73.848436,40.81276],[-73.848167,40.81252],[-73.84803,40.812218],[-73.847975,40.811903],[-73.847687,40.811492],[-73.84744,40.81119],[-73.847223,40.811077],[-73.847036,40.810732],[-73.846849,40.810714],[-73.846679,40.810851],[-73.846561,40.810971],[-73.846534,40.81108],[-73.846363,40.811205],[-73.846256,40.81131],[-73.846229,40.811419],[-73.846387,40.811625],[-73.845476,40.811978],[-73.844595,40.813466],[-73.84463,40.813697],[-73.842449,40.813438],[-73.843134,40.811603],[-73.845117,40.806299],[-73.846654,40.801024],[-73.853072,40.800113],[-73.854632,40.799724],[-73.855256,40.804608],[-73.854406,40.804591],[-73.854311,40.804434],[-73.85286,40.804625],[-73.851704,40.804726],[-73.85133,40.804608],[-73.850583,40.804421],[-73.850175,40.804489],[-73.850022,40.804998],[-73.850022,40.805185],[-73.849954,40.805287],[-73.849767,40.805304],[-73.849325,40.805168],[-73.848432,40.80499],[-73.847642,40.80513],[-73.847642,40.80575],[-73.847689,40.806065],[-73.84802,40.805993],[-73.84844,40.806129],[-73.848576,40.806367],[-73.848542,40.806549],[-73.848451,40.806833],[-73.848485,40.807128],[-73.848712,40.807502],[-73.849234,40.807798],[-73.849313,40.808047],[-73.850287,40.808475],[-73.850258,40.809609],[-73.850018,40.810007],[-73.849702,40.810217],[-73.849537,40.810382],[-73.849483,40.810615],[-73.849263,40.810861],[-73.849208,40.810957],[-73.849441,40.811149],[-73.849524,40.811328],[-73.8494,40.811465],[-73.849236,40.811794],[-73.849263,40.812109],[-73.849359,40.812314],[-73.849803,40.812757],[-73.850397,40.813091],[-73.850757,40.81337],[-73.850935,40.813521],[-73.851384,40.813646],[-73.852169,40.813795],[-73.853002,40.813694],[-73.853204,40.8135],[-73.853766,40.813514],[-73.854335,40.813651],[-73.854999,40.813932],[-73.855308,40.814137],[-73.855328,40.814268],[-73.855376,40.814501],[-73.855479,40.814727],[-73.855602,40.814953],[-73.855753,40.815391],[-73.855751,40.815561]]]}},
{"type":"Feature","properties":{"ANSICODE":null,"HYDROID":"110391538085","FULLNAME":null,"MTFCC":"H2030","ALAND":0,"AWATER":402,"INTPTLAT":"+40.8654060","INTPTLON":"-73.8150023"},"geometry":{"type":"Polygon","coordinates":[[[-73.815109,40.865537],[-73.814809,40.865437],[-73.815089,40.865244],[-73.815109,40.865537]]]}},
{"type":"Feature","properties":{"ANSICODE":null,"HYDROID":"110391538012","FULLNAME":"Eastchester Bay","MTFCC":"H2051","ALAND":0,"AWATER":5517256,"INTPTLAT":"+40.8408471","INTPTLON":"-73.8045231"},"geometry":{"type":"Polygon","coordinates":[[[-73.816749,40.852438],[-73.8167,40.852666],[-73.816651,40.853024],[-73.816537,40.853415],[-73.816358,40.853676],[-73.816049,40.853839],[-73.815886,40.853887],[-73.81556,40.853887],[-73.812026,40.85392],[-73.812368,40.857389],[-73.812466,40.858773],[-73.812628,40.859278],[-73.812791,40.859718],[-73.813003,40.860044],[-73.813231,40.860369],[-73.813492,40.860646],[-73.813964,40.860988],[-73.81429,40.861151],[-73.816414,40.86118],[-73.815464,40.86254],[-73.815104,40.863057],[-73.813845,40.86403],[-73.810968,40.862714],[-73.80759,40.858663],[-73.807579,40.860385],[-73.806648,40.860977],[-73.805655,40.861231],[-73.804575,40.861191],[-73.80563,40.85471],[-73.804801,40.854721],[-73.804385,40.853298],[-73.804993,40.853237],[-73.801831,40.850131],[-73.800206,40.847927],[-73.799321,40.849913],[-73.798493,40.850659],[-73.798196,40.851962],[-73.798166,40.853751],[-73.798375,40.854245],[-73.798763,40.853821],[-73.798417,40.854963],[-73.797985,40.854849],[-73.796472,40.856207],[-73.794032,40.856551],[-73.793575,40.856326],[-73.801855,40.840009],[-73.808787,40.838145],[-73.790193,40.834415],[-73.790125,40.833985],[-73.789593,40.834057],[-73.789581,40.834292],[-73.77452,40.831273],[-73.774977,40.830879],[-73.798866,40.827553],[-73.813804,40.825468],[-73.813986,40.825682],[-73.814167,40.825897],[-73.813789,40.826331],[-73.813855,40.826857],[-73.813328,40.827312],[-73.812869,40.827709],[-73.813277,40.8288],[-73.814141,40.829847],[-73.814932,40.83073],[-73.815186,40.831181],[-73.815629,40.833648],[-73.81565,40.833769],[-73.816408,40.835932],[-73.816369,40.837151],[-73.816342,40.838031],[-73.815501,40.838964],[-73.814737,40.83909],[-73.815201,40.840581],[-73.815675,40.842421],[-73.816279,40.842802],[-73.816212,40.842967],[-73.816298,40.843068],[-73.816313,40.843179],[-73.816424,40.84327],[-73.816459,40.843356],[-73.816459,40.843442],[-73.816439,40.843523],[-73.816525,40.843629],[-73.816611,40.84372],[-73.81656,40.843831],[-73.81655,40.843932],[-73.81654,40.843957],[-73.816415,40.843963],[-73.815936,40.844204],[-73.815792,40.84427],[-73.815666,40.84422],[-73.815601,40.844114],[-73.81554,40.844033],[-73.815398,40.843972],[-73.815343,40.843932],[-73.815257,40.843841],[-73.815242,40.84375],[-73.815247,40.84374],[-73.81524,40.843708],[-73.815222,40.843644],[-73.815181,40.843614],[-73.81508,40.843594],[-73.814797,40.843507],[-73.814713,40.843523],[-73.813757,40.843702],[-73.813451,40.843787],[-73.81344,40.843877],[-73.813509,40.844098],[-73.813599,40.844299],[-73.813694,40.844399],[-73.813857,40.844484],[-73.814106,40.844473],[-73.814407,40.844405],[-73.814726,40.844379],[-73.814769,40.845126],[-73.814976,40.845245],[-73.813995,40.845809],[-73.81418,40.845983],[-73.815014,40.845492],[-73.815172,40.845709],[-73.814744,40.845962],[-73.814692,40.846099],[-73.814766,40.846258],[-73.814913,40.846385],[-73.815008,40.84649],[-73.815061,40.846495],[-73.815584,40.846231],[-73.815666,40.846246],[-73.81548,40.846513],[-73.815903,40.848013],[-73.815674,40.848855],[-73.814876,40.849279],[-73.815658,40.850109],[-73.815658,40.850305],[-73.815658,40.850614],[-73.815788,40.850956],[-73.816016,40.851119],[-73.816358,40.851331],[-73.816619,40.851656],[-73.816716,40.851884],[-73.816765,40.85221],[-73.816749,40.852438]],[[-73.806946,40.841462],[-73.805295,40.841135],[-73.802638,40.841081],[-73.802222,40.841635],[-73.803676,40.842258],[-73.80393,40.842594],[-73.806808,40.842489],[-73.806946,40.841462]]]}},
{"type":"Feature","properties":{"ANSICODE":null,"HYDROID":"110391537928","FULLNAME":"Bronx Riv","MTFCC":"H3010","ALAND":0,"AWATER":2054565,"INTPTLAT":"+40.8034275","INTPTLON":"-73.8655882"},"geometry":{"type":"Polygon","coordinates":[[[-73.884328,40.822614],[-73.883376,40.821986],[-73.882902,40.820895],[-73.880546,40.818468],[-73.87832,40.817087],[-73.877513,40.816586],[-73.876976,40.816422],[-73.876505,40.81628],[-73.873113,40.815299],[-73.87177,40.814961],[-73.871601,40.814905],[-73.871306,40.8148],[-73.871095,40.814701],[-73.870743,40.814504],[-73.870582,40.814392],[-73.870385,40.814202],[-73.870047,40.813829],[-73.869239,40.812824],[-73.868887,40.81236],[-73.86849,40.811766],[-73.868346,40.811495],[-73.868156,40.811179],[-73.868051,40.811059],[-73.867805,40.810764],[-73.867664,40.810651],[-73.867587,40.810609],[-73.867383,40.810588],[-73.866715,40.810546],[-73.865737,40.810447],[-73.864345,40.810328],[-73.863656,40.810251],[-73.863045,40.810152],[-73.862538,40.810082],[-73.862224,40.810031],[-73.861633,40.809902],[-73.861112,40.809765],[-73.860482,40.809491],[-73.860354,40.809406],[-73.859906,40.809107],[-73.859577,40.808723],[-73.859522,40.808312],[-73.85944,40.808038],[-73.859413,40.808504],[-73.859495,40.80897],[-73.859906,40.809573],[-73.859033,40.809947],[-73.858919,40.808997],[-73.858722,40.808572],[-73.858481,40.808065],[-73.858668,40.80738],[-73.858892,40.807051],[-73.859111,40.806914],[-73.859194,40.80738],[-73.859331,40.807572],[-73.85944,40.807243],[-73.859331,40.806667],[-73.859111,40.806366],[-73.858665,40.806833],[-73.858556,40.806646],[-73.858483,40.806433],[-73.858395,40.806219],[-73.858283,40.806023],[-73.858119,40.805757],[-73.858026,40.80565],[-73.858025,40.805406],[-73.857686,40.80527],[-73.856734,40.804896],[-73.85653,40.804794],[-73.855426,40.804506],[-73.855256,40.804608],[-73.854632,40.799724],[-73.862965,40.79767],[-73.863147,40.797497],[-73.863502,40.797162],[-73.867118,40.793742],[-73.870207,40.790909],[-73.872264,40.794992],[-73.871281,40.801433],[-73.871253,40.801619],[-73.871238,40.801719],[-73.871187,40.802049],[-73.871102,40.802605],[-73.870981,40.802575],[-73.870694,40.802986],[-73.870333,40.803525],[-73.868313,40.806314],[-73.868132,40.806872],[-73.87077,40.811863],[-73.871998,40.813743],[-73.876833,40.815268],[-73.878758,40.816067],[-73.879354,40.816371],[-73.879599,40.816616],[-73.879868,40.816827],[-73.880219,40.817165],[-73.881408,40.817993],[-73.882909,40.819536],[-73.882943,40.819626],[-73.88365,40.82152],[-73.884328,40.822614]]]}},
{"type":"Feature","properties":{"ANSICODE":null,"HYDROID":"110391538042","FULLNAME":"Van Cortlandt Lk","MTFCC":"H2030","ALAND":0,"AWATER":28258,"INTPTLAT":"+40.8903883","INTPTLON":"-73.8898382"},"geometry":{"type":"Polygon","coordinates":[[[-73.891405,40.890178],[-73.890305,40.890478],[-73.888979,40.891435],[-73.888505,40.891778],[-73.888405,40.891078],[-73.889205,40.889778],[-73.892005,40.889578],[-73.891405,40.890178]]]}},
{"type":"Feature","properties":{"ANSICODE":null,"HYDROID":"110391538018","FULLNAME":"Middle Reef","MTFCC":"H2030","ALAND":0,"AWATER":19082,"INTPTLAT":"+40.8712327","INTPTLON":"-73.7714483"},"geometry":{"type":"Polygon","coordinates":[[[-73.772178,40.871981],[-73.77081,40.87155],[-73.769907,40.870477],[-73.771097,40.870693],[-73.77288,40.871246],[-73.772178,40.871981]]]}},
{"type":"Feature","properties":{"ANSICODE":null,"HYDROID":"110391537910","FULLNAME":"East Riv","MTFCC":"H3010","ALAND":0,"AWATER":3756419,"INTPTLAT":"+40.8077918","INTPTLON":"-73.8049045"},"geometry":{"type":"Polygon","coordinates":[[[-73.832009,40.808278],[-73.831897,40.808863],[-73.831585,40.809436],[-73.83105,40.810009],[-73.830377,40.810594],[-73.829568,40.811069],[-73.826345,40.811196],[-73.82458,40.812046],[-73.823748,40.812321],[-73.822917,40.812597],[-73.820467,40.813174],[-73.81999,40.813054],[-73.816861,40.813688],[-73.814353,40.813422],[-73.813125,40.813292],[-73.812237,40.813123],[-73.811908,40.813175],[-73.811601,40.813175],[-73.81132,40.813201],[-73.810995,40.813065],[-73.810679,40.813021],[-73.810341,40.8131],[-73.810012,40.813105],[-73.809652,40.812951],[-73.809183,40.812679],[-73.808573,40.812258],[-73.807792,40.811622],[-73.807445,40.811209],[-73.807195,40.810876],[-73.806695,40.81045],[-73.806331,40.810222],[-73.806015,40.810081],[-73.805637,40.809818],[-73.80515,40.809581],[-73.804729,40.809327],[-73.804264,40.80902],[-73.804018,40.808813],[-73.803927,40.808528],[-73.803803,40.808515],[-73.803742,40.808625],[-73.803667,40.808831],[-73.803663,40.808906],[-73.803334,40.809116],[-73.803005,40.809243],[-73.80272,40.809243],[-73.802158,40.809112],[-73.801751,40.809043],[-73.801459,40.808931],[-73.801232,40.808548],[-73.800119,40.807992],[-73.798906,40.807132],[-73.797844,40.806559],[-73.797049,40.806276],[-73.796723,40.806058],[-73.796426,40.805908],[-73.796363,40.805986],[-73.796024,40.805828],[-73.795799,40.806188],[-73.795306,40.80593],[-73.794352,40.805212],[-73.79449,40.804998],[-73.794931,40.804776],[-73.796604,40.805478],[-73.796662,40.805412],[-73.796934,40.805531],[-73.796964,40.805498],[-73.796679,40.805362],[-73.795328,40.80479],[-73.794643,40.804482],[-73.794546,40.80459],[-73.794668,40.804657],[-73.794554,40.804729],[-73.794618,40.804804],[-73.794343,40.804937],[-73.79396,40.804807],[-73.793595,40.804456],[-73.793437,40.804303],[-73.792801,40.804249],[-73.792041,40.804161],[-73.79163,40.804148],[-73.790861,40.804334],[-73.790576,40.804549],[-73.79021,40.805037],[-73.790105,40.805481],[-73.790216,40.80588],[-73.790371,40.806158],[-73.790859,40.806568],[-73.790809,40.807073],[-73.790887,40.807262],[-73.79107,40.807384],[-73.791281,40.8074],[-73.791283,40.807315],[-73.791242,40.807267],[-73.791159,40.807156],[-73.791164,40.807034],[-73.791292,40.806923],[-73.791381,40.806812],[-73.791603,40.806835],[-73.792096,40.806807],[-73.792374,40.806851],[-73.79325,40.807206],[-73.79347,40.807343],[-73.79362,40.807413],[-73.793688,40.809001],[-73.793713,40.809999],[-73.79378,40.810657],[-73.793988,40.811389],[-73.794179,40.811955],[-73.794588,40.812659],[-73.795264,40.813737],[-73.796036,40.814558],[-73.796648,40.815122],[-73.797576,40.815821],[-73.797453,40.815892],[-73.797361,40.815946],[-73.790679,40.814182],[-73.779556,40.811247],[-73.782676,40.805386],[-73.784745,40.802592],[-73.787316,40.800853],[-73.787918,40.800362],[-73.79002,40.80023],[-73.793371,40.800387],[-73.793559,40.80038],[-73.797133,40.80141],[-73.799745,40.802199],[-73.804543,40.803554],[-73.811299,40.805397],[-73.817418,40.80579],[-73.823438,40.80481],[-73.827583,40.803936],[-73.83023,40.803267],[-73.830404,40.803199],[-73.830509,40.803164],[-73.830546,40.803151],[-73.830676,40.803108],[-73.831833,40.804939],[-73.831698,40.805018],[-73.831673,40.805033],[-73.831603,40.805074],[-73.831595,40.805153],[-73.831582,40.805288],[-73.831539,40.805726],[-73.831685,40.806098],[-73.831648,40.80631],[-73.831453,40.806597],[-73.83143,40.80683],[-73.831747,40.80702],[-73.831971,40.807481],[-73.832009,40.808278]]]}},
{"type":"Feature","properties":{"ANSICODE":null,"HYDROID":"110391538004","FULLNAME":"Hutchinson Riv","MTFCC":"H3010","ALAND":0,"AWATER":626245,"INTPTLAT":"+40.8667583","INTPTLON":"-73.8169825"},"geometry":{"type":"Polygon","coordinates":[[[-73.823752,40.887832],[-73.822334,40.88731],[-73.820392,40.886859],[-73.819478,40.885855],[-73.81936,40.885726],[-73.81894,40.885173],[-73.819138,40.883539],[-73.819494,40.881481],[-73.819913,40.879378],[-73.82031,40.878373],[-73.820809,40.878047],[-73.821626,40.877516],[-73.820977,40.876271],[-73.820767,40.877071],[-73.820397,40.876065],[-73.821521,40.876007],[-73.821579,40.875358],[-73.822035,40.874988],[-73.82073,40.874951],[-73.820241,40.874645],[-73.819543,40.874636],[-73.819257,40.874406],[-73.819905,40.874033],[-73.819486,40.873722],[-73.82038,40.873645],[-73.82096,40.874514],[-73.821525,40.874492],[-73.822419,40.874866],[-73.822278,40.874001],[-73.821586,40.874059],[-73.821059,40.87368],[-73.822374,40.872936],[-73.822043,40.872359],[-73.821997,40.871313],[-73.821875,40.870665],[-73.821448,40.870034],[-73.820589,40.869403],[-73.820461,40.869309],[-73.820129,40.869113],[-73.819272,40.869185],[-73.818738,40.868437],[-73.817474,40.86731],[-73.817105,40.867763],[-73.817268,40.868497],[-73.817972,40.868558],[-73.818567,40.868923],[-73.818926,40.869539],[-73.818579,40.870074],[-73.817653,40.869265],[-73.815925,40.87062],[-73.815617,40.869933],[-73.81549,40.869014],[-73.815535,40.868222],[-73.814692,40.868242],[-73.816341,40.8661],[-73.816679,40.86528],[-73.816752,40.864544],[-73.815089,40.865244],[-73.81517,40.864126],[-73.815104,40.863057],[-73.815464,40.86254],[-73.816414,40.86118],[-73.817239,40.861],[-73.818005,40.861082],[-73.820027,40.859734],[-73.820766,40.860081],[-73.820089,40.860399],[-73.818339,40.861834],[-73.818807,40.862482],[-73.819459,40.86281],[-73.819938,40.863737],[-73.820257,40.867494],[-73.8204,40.868242],[-73.821164,40.868583],[-73.821335,40.868653],[-73.821638,40.868771],[-73.823537,40.869885],[-73.823645,40.873641],[-73.823519,40.873858],[-73.82371,40.874618],[-73.821452,40.880042],[-73.821193,40.880586],[-73.820591,40.882939],[-73.820322,40.885438],[-73.820684,40.885544],[-73.820978,40.885979],[-73.821528,40.886516],[-73.821598,40.886746],[-73.822269,40.887059],[-73.822628,40.887061],[-73.822857,40.887053],[-73.8231,40.887104],[-73.823612,40.887295],[-73.823855,40.887474],[-73.823752,40.887832]],[[-73.819102,40.865197],[-73.818116,40.865569],[-73.817989,40.866088],[-73.819369,40.865945],[-73.819102,40.865197]],[[-73.817989,40.866088],[-73.817089,40.866388],[-73.817789,40.866888],[-73.817989,40.866088]]]}},
{"type":"Feature","properties":{"ANSICODE":null,"HYDROID":"110391537957","FULLNAME":"Harlem Riv","MTFCC":"H3010","ALAND":0,"AWATER":540,"INTPTLAT":"+40.8253130","INTPTLON":"-73.9326454"},"geometry":{"type":"Polygon","coordinates":[[[-73.932749,40.825439],[-73.932749,40.825492],[-73.932576,40.825458],[-73.932557,40.825261],[-73.932497,40.825137],[-73.932532,40.825144],[-73.932728,40.825183],[-73.932736,40.82529],[-73.932749,40.825386],[-73.932749,40.825439]]]}},
{"type":"Feature","properties":{"ANSICODE":null,"HYDROID":"110391538054","FULLNAME":"Harlem River Bhl","MTFCC":"H3010","ALAND":0,"AWATER":2920,"INTPTLAT":"+40.8224101","INTPTLON":"-73.9320357"},"geometry":{"type":"Polygon","coordinates":[[[-73.932491,40.822554],[-73.931628,40.822614],[-73.93159,40.822564],[-73.93159,40.822325],[-73.931615,40.82225],[-73.931854,40.82225],[-73.932468,40.822203],[-73.932491,40.822554]]]}},
{"type":"Feature","properties":{"ANSICODE":null,"HYDROID":"11021366285043","FULLNAME":"Westchester Crk","MTFCC":"H3010","ALAND":0,"AWATER":1133576,"INTPTLAT":"+40.8091289","INTPTLON":"-73.8406005"},"geometry":{"type":"Polygon","coordinates":[[[-73.846654,40.801024],[-73.845117,40.806299],[-73.843134,40.811603],[-73.842449,40.813438],[-73.84463,40.813697],[-73.84438,40.814208],[-73.844333,40.81485],[-73.843153,40.816268],[-73.842677,40.817036],[-73.842264,40.817611],[-73.842047,40.818626],[-73.841444,40.819147],[-73.840638,40.819483],[-73.84021,40.819942],[-73.840101,40.820737],[-73.840073,40.82123],[-73.840265,40.822053],[-73.841279,40.824904],[-73.842317,40.827185],[-73.842546,40.827741],[-73.842587,40.827811],[-73.842626,40.827865],[-73.84265,40.827909],[-73.842667,40.827997],[-73.84267,40.82804],[-73.842653,40.828263],[-73.842667,40.828342],[-73.842736,40.828528],[-73.842748,40.828544],[-73.842812,40.828637],[-73.842839,40.828722],[-73.842913,40.828841],[-73.843034,40.828935],[-73.843089,40.829318],[-73.843102,40.829488],[-73.843086,40.829703],[-73.842977,40.829895],[-73.843123,40.830001],[-73.842906,40.830266],[-73.842746,40.830206],[-73.842623,40.830499],[-73.842787,40.830566],[-73.84268,40.830744],[-73.842671,40.830857],[-73.842548,40.831056],[-73.842416,40.831207],[-73.842279,40.831267],[-73.841915,40.83081],[-73.842028,40.830508],[-73.842189,40.83031],[-73.842331,40.829941],[-73.842368,40.829431],[-73.842311,40.829079],[-73.842314,40.828923],[-73.842308,40.828799],[-73.842346,40.828795],[-73.842387,40.82879],[-73.842385,40.828688],[-73.84238,40.828592],[-73.842316,40.82839],[-73.842287,40.828299],[-73.842076,40.828125],[-73.842008,40.827978],[-73.841976,40.827933],[-73.841942,40.827885],[-73.841903,40.827811],[-73.841191,40.826278],[-73.839081,40.823107],[-73.838648,40.821971],[-73.838675,40.82145],[-73.838867,40.820381],[-73.83873,40.819558],[-73.839251,40.818845],[-73.839588,40.818521],[-73.840071,40.817549],[-73.840225,40.817221],[-73.83998,40.816391],[-73.839858,40.815976],[-73.839872,40.815539],[-73.839907,40.81447],[-73.840068,40.813601],[-73.840426,40.811873],[-73.839018,40.808216],[-73.837984,40.806226],[-73.83648,40.805922],[-73.835919,40.805588],[-73.834499,40.805015],[-73.832881,40.804816],[-73.831959,40.804865],[-73.831833,40.804939],[-73.830676,40.803108],[-73.83082,40.80306],[-73.831706,40.802894],[-73.835409,40.802199],[-73.844076,40.801023],[-73.845397,40.801024],[-73.846654,40.801024]]]}},
{"type":"Feature","properties":{"ANSICODE":null,"HYDROID":"110391537983","FULLNAME":"Woodlawn Lk","MTFCC":"H2030","ALAND":0,"AWATER":3169,"INTPTLAT":"+40.8939263","INTPTLON":"-73.8708733"},"geometry":{"type":"Polygon","coordinates":[[[-73.87102,40.894541],[-73.870627,40.893902],[-73.870625,40.893279],[-73.871006,40.893727],[-73.871173,40.89416],[-73.87102,40.894541]]]}}
]
}
